NORAD_CAT_ID,OBJECT_NAME,OBJECT_TYPE,EPOCH,MEAN_MOTION,ECCENTRICITY,INCLINATION,RA_OF_ASC_NODE,ARG_OF_PERICENTER,MEAN_ANOMALY,BSTAR,MEAN_MOTION_DOT,MEAN_MOTION_DDOT,TLE_LINE0,TLE_LINE1,TLE_LINE2,SEMIMAJOR_AXIS,PERIOD,APOGEE,PERIGEE,DECAYED
49458.0,STARLINK-3156,PAYLOAD,2022-08-28 10:25:39,15.08831586,0.0002032999999999,53.218,246.8202,50.3057,309.8114,-6.053399999999999e-05,-1.251e-05,0.0,0 STARLINK-3156,1 49458U 21104BC  22240.43449069 -.00001251  00000-0 -60534-4 0  9990,2 49458  53.2180 246.8202 0002033  50.3057 309.8114 15.08831586 44147,6917.906,95.438,541.178,538.365,0.0
49458.0,STARLINK-3156,PAYLOAD,2022-08-29 07:05:41,15.08826157,0.0002089999999999,53.2179,242.9547,51.1854,308.9325,4.2138e-05,3.82e-06,0.0,0 STARLINK-3156,1 49458U 21104BC  22241.29561669  .00000382  00000-0  42138-4 0  9998,2 49458  53.2179 242.9547 0002090  51.1854 308.9325 15.08826157 44277,6917.9230000000025,95.438,541.234,538.342,0.0
49458.0,STARLINK-3156,PAYLOAD,2022-08-30 00:34:56,15.08830915,0.0002106,53.2178,239.6836,51.4672,308.6509,0.0001121,1.496e-05,0.0,0 STARLINK-3156,1 49458U 21104BC  22242.02426043  .00001496  00000-0  11210-3 0  9999,2 49458  53.2178 239.6836 0002106  51.4672 308.6509 15.08830915 45469,6917.908,95.438,541.23,538.316,0.0
49458.0,STARLINK-3156,PAYLOAD,2022-08-30 06:56:28,15.08830184,0.000214,53.2178,238.4941,51.7588,308.3597,8.9586e-05,1.137e-05,0.0,0 STARLINK-3156,1 49458U 21104BC  22242.28922168  .00001137  00000-0  89586-4 0  9990,2 49458  53.2178 238.4941 0002140  51.7588 308.3597 15.08830184 44427,6917.91,95.438,541.256,538.295,0.0
49458.0,STARLINK-3156,PAYLOAD,2022-08-31 06:47:15,15.08839103,0.0002195999999999,53.2178,234.0336,53.1964,306.9229,0.00011486,1.5399999999999998e-05,0.0,0 STARLINK-3156,1 49458U 21104BC  22243.28282010  .00001540  00000-0  11486-3 0  9997,2 49458  53.2178 234.0336 0002196  53.1964 306.9229 15.08839103 44574,6917.8830000000025,95.438,541.2669999999998,538.229,0.0
49458.0,STARLINK-3156,PAYLOAD,2022-09-01 06:38:02,15.08848633,0.0002217,53.2176,229.5728,55.0502,305.0699,0.00013052,1.7899999999999998e-05,0.0,0 STARLINK-3156,1 49458U 21104BC  22244.27641303  .00001790  00000-0  13052-3 0  9999,2 49458  53.2176 229.5728 0002217  55.0502 305.0699 15.08848633 44725,6917.854,95.437,541.253,538.185,0.0
49458.0,STARLINK-3156,PAYLOAD,2022-09-01 16:10:20,15.08853992,0.0002251999999999,53.2176,227.7884,54.6966,305.4237,0.00015939,2.25e-05,0.0,0 STARLINK-3156,1 49458U 21104BC  22244.67384817  .00002250  00000-0  15939-3 0  9995,2 49458  53.2176 227.7884 0002252  54.6966 305.4237 15.08853992 44788,6917.8380000000025,95.437,541.261,538.145,0.0
49458.0,STARLINK-3156,PAYLOAD,2022-09-02 00:07:16,15.08846661,0.0002348,53.2183,226.3015,57.3695,302.7523,4.492100000000001e-05,4.27e-06,0.0,0 STARLINK-3156,1 49458U 21104BC  22245.00505337  .00000427  00000-0  44921-4 0  9993,2 49458  53.2183 226.3015 0002348  57.3695 302.7523 15.08846661 45911,6917.86,95.437,541.349,538.101,0.0
49458.0,STARLINK-3156,PAYLOAD,2022-09-02 08:04:12,15.08841577,0.0002273,53.2176,224.8146,56.798,303.323,-1.6149e-06,-3.14e-06,0.0,0 STARLINK-3156,1 49458U 21104BC  22245.33625739 -.00000314  00000-0 -16149-5 0  9997,2 49458  53.2176 224.8146 0002273  56.7980 303.3230 15.08841577 45966,6917.876,95.437,541.313,538.168,0.0
49458.0,STARLINK-3156,PAYLOAD,2022-09-02 16:01:08,15.08845022,0.0002282,53.2177,223.3279,57.0954,303.0257,1.9828e-05,2.7e-07,0.0,0 STARLINK-3156,1 49458U 21104BC  22245.66745386  .00000027  00000-0  19828-4 0  9999,2 49458  53.2177 223.3279 0002282  57.0954 303.0257 15.08845022 44934,6917.865,95.437,541.309,538.151,0.0
49458.0,STARLINK-3156,PAYLOAD,2022-09-03 03:08:49,15.08849342,0.0002290999999999,53.2176,221.2461,57.3267,302.7946,1.0193e-05,-1.26e-06,0.0,0 STARLINK-3156,1 49458U 21104BC  22246.13112835 -.00000126  00000-0  10193-4 0  9996,2 49458  53.2176 221.2461 0002291  57.3267 302.7946 15.08849342 46081,6917.852,95.437,541.302,538.132,0.0
49458.0,STARLINK-3156,PAYLOAD,2022-09-03 07:54:58,15.08850952,0.000229,53.2177,220.354,57.5915,302.5299,2.772e-05,1.53e-06,0.0,0 STARLINK-3156,1 49458U 21104BC  22246.32984675  .00000153  00000-0  27720-4 0  9999,2 49458  53.2177 220.3540 0002290  57.5915 302.5299 15.08850952 45033,6917.847,95.437,541.2959999999998,538.128,0.0
49458.0,STARLINK-3156,PAYLOAD,2022-09-04 02:59:36,15.08842007,0.0002262,53.2179,216.7853,58.3528,301.7685,3.4247e-05,2.57e-06,0.0,0 STARLINK-3156,1 49458U 21104BC  22247.12472749  .00000257  00000-0  34247-4 0  9999,2 49458  53.2179 216.7853 0002262  58.3528 301.7685 15.08842007 46234,6917.874,95.437,541.304,538.174,0.0
49458.0,STARLINK-3156,PAYLOAD,2022-09-04 07:45:45,15.08839491,0.0002307,53.2176,215.8939,56.3145,303.8067,5.273e-05,5.51e-06,0.0,0 STARLINK-3156,1 49458U 21104BC  22247.32344859  .00000551  00000-0  52730-4 0  9995,2 49458  53.2176 215.8939 0002307  56.3145 303.8067 15.08839491 45182,6917.882,95.438,541.3430000000002,538.151,0.0
49458.0,STARLINK-3156,PAYLOAD,2022-09-05 06:01:09,15.08844813,0.0002153,53.2175,211.7308,58.1832,301.937,1.6925e-05,-1.9e-07,0.0,0 STARLINK-3156,1 49458U 21104BC  22248.25080431 -.00000019  00000-0  16925-4 0  9997,2 49458  53.2175 211.7308 0002153  58.1832 301.9370 15.08844813 46404,6917.866,95.437,541.22,538.241,0.0
49458.0,STARLINK-3156,PAYLOAD,2022-09-06 05:51:57,15.08830613,0.0002157,53.2191,207.2691,55.2154,304.9041,-5.7469e-05,-1.203e-05,0.0,0 STARLINK-3156,1 49458U 21104BC  22249.24441167 -.00001203  00000-0 -57469-4 0  9999,2 49458  53.2191 207.2691 0002157  55.2154 304.9041 15.08830613 45473,6917.909000000002,95.438,541.266,538.2819999999998,0.0
49458.0,STARLINK-3156,PAYLOAD,2022-09-07 07:18:08,15.08824735,0.0002073,53.2189,202.5138,56.2321,303.8868,-6.2142e-05,-1.277e-05,0.0,0 STARLINK-3156,1 49458U 21104BC  22250.30426332 -.00001277  00000-0 -62142-4 0  9990,2 49458  53.2189 202.5138 0002073  56.2321 303.8868 15.08824735 46719,6917.927,95.439,541.226,538.3580000000002,0.0
49458.0,STARLINK-3156,PAYLOAD,2022-09-07 21:36:36,15.08878088,0.0002045999999999,53.2193,199.8379,42.7859,317.3292,-0.00063052,-0.0001032,0.0,0 STARLINK-3156,1 49458U 21104BC  22250.90042001 -.00010320  00000-0 -63052-3 0  9992,2 49458  53.2193 199.8379 0002046  42.7859 317.3292 15.08878088 45726,6917.764,95.435,541.044,538.214,0.0
49458.0,STARLINK-3156,PAYLOAD,2022-09-08 07:08:54,15.08847576,0.000212,53.219,198.0535,51.1815,308.9366,-8.1362e-05,-1.583e-05,0.0,0 STARLINK-3156,1 49458U 21104BC  22251.29785586 -.00001583  00000-0 -81362-4 0  9993,2 49458  53.2190 198.0535 0002120  51.1815 308.9366 15.08847576 46869,6917.857,95.437,541.189,538.256,0.0
49458.0,STARLINK-3156,PAYLOAD,2022-09-08 21:27:22,15.08840533,0.0002002,53.2185,195.3776,53.6601,306.4576,0.00025693,3.803e-05,0.0,0 STARLINK-3156,1 49458U 21104BC  22251.89401473  .00003803  00000-0  25693-3 0  9998,2 49458  53.2185 195.3776 0002002  53.6601 306.4576 15.08840533 45871,6917.879,95.438,541.129,538.359,0.0
49458.0,STARLINK-3156,PAYLOAD,2022-09-09 05:24:18,15.08850565,0.0002104,53.2176,193.8907,53.709,306.4096,0.00039526,6.01e-05,0.0,0 STARLINK-3156,1 49458U 21104BC  22252.22521458  .00006010  00000-0  39526-3 0  9995,2 49458  53.2176 193.8907 0002104  53.7090 306.4096 15.08850565 45925,6917.848000000001,95.437,541.169,538.258,0.0
49458.0,STARLINK-3156,PAYLOAD,2022-09-09 19:42:46,15.08848823,0.0002311999999999,53.2169,191.217,47.0981,313.0205,0.00025077,3.706e-05,0.0,0 STARLINK-3156,1 49458U 21104BC  22252.82137342  .00003706  00000-0  25077-3 0  9991,2 49458  53.2169 191.2170 0002312  47.0981 313.0205 15.08848823 46018,6917.853,95.437,541.318,538.119,0.0
49458.0,STARLINK-3156,PAYLOAD,2022-09-10 02:04:19,15.08847362,0.0002092,53.218,190.0247,53.1965,306.9219,8.0886e-05,1e-05,0.0,0 STARLINK-3156,1 49458U 21104BC  22253.08633288  .00001000  00000-0  80886-4 0  9995,2 49458  53.2180 190.0247 0002092  53.1965 306.9219 15.08847362 47135,6917.858,95.437,541.17,538.276,0.0
49458.0,STARLINK-3156,PAYLOAD,2022-09-10 05:15:05,15.08848285,0.0002011,53.2175,189.4298,54.3001,305.8178,8.8342e-05,1.118e-05,0.0,0 STARLINK-3156,1 49458U 21104BC  22253.21881168  .00001118  00000-0  88342-4 0  9997,2 49458  53.2175 189.4298 0002011  54.3001 305.8178 15.08848285 46071,6917.855,95.437,541.111,538.3290000000002,0.0
49458.0,STARLINK-3156,PAYLOAD,2022-09-10 19:33:33,15.08848627,0.0002061,53.2177,186.7527,62.6084,297.5118,4.9739e-05,5.04e-06,0.0,0 STARLINK-3156,1 49458U 21104BC  22253.81496897  .00000504  00000-0  49739-4 0  9999,2 49458  53.2177 186.7527 0002061  62.6084 297.5118 15.08848627 46167,6917.854,95.437,541.145,538.293,0.0
49458.0,STARLINK-3156,PAYLOAD,2022-09-11 05:05:51,15.08851138,0.0002069,53.2185,184.9699,58.0677,302.0517,4.5513e-05,4.36e-06,0.0,0 STARLINK-3156,1 49458U 21104BC  22254.21240623  .00000436  00000-0  45513-4 0  9998,2 49458  53.2185 184.9699 0002069  58.0677 302.0517 15.08851138 46224,6917.846,95.437,541.143,538.28,0.0
49458.0,STARLINK-3156,PAYLOAD,2022-09-11 19:24:20,15.08843995,0.0001918,53.2181,182.2933,57.6883,302.4295,0.00010348,1.359e-05,0.0,0 STARLINK-3156,1 49458U 21104BC  22254.80856840  .00001359  00000-0  10348-3 0  9999,2 49458  53.2181 182.2933 0001918  57.6883 302.4295 15.08843995 47396,6917.868,95.437,541.06,538.406,0.0
49458.0,STARLINK-3156,PAYLOAD,2022-09-12 04:56:38,15.08849329,0.0001986999999999,53.2176,180.5115,44.8581,315.2571,0.0002078,3.021e-05,0.0,0 STARLINK-3156,1 49458U 21104BC  22255.20600582  .00003021  00000-0  20780-3 0  9993,2 49458  53.2176 180.5115 0001987  44.8581 315.2571 15.08849329 46375,6917.852,95.437,541.091,538.342,0.0
49458.0,STARLINK-3156,PAYLOAD,2022-09-12 19:15:07,15.08841596,0.0001909999999999,53.2182,177.8332,55.3786,304.7386,0.00010145,1.327e-05,0.0,0 STARLINK-3156,1 49458U 21104BC  22255.80216927  .00001327  00000-0  10145-3 0  9996,2 49458  53.2182 177.8332 0001910  55.3786 304.7386 15.08841596 46467,6917.876,95.437,541.062,538.419,0.0
